     2.100          NAVIGATION                              RINEX VERSION / TYPE
fic2rin                                 07/09/2017 00:16:30 PGM / RUN BY / DATE
                                                            END OF HEADER
26 17  7  8  6  0  0.0 -.477964524180D-03  .704858393874D-11  .000000000000D+00
     .470000000000D+02  .105937500000D+03  .456590447396D-08 -.160728767428D+01
     .557117164135D-05  .181127258111D-02  .301375985146D-05  .515373167801D+04
     .540000000000D+06 -.633299350739D-07  .102441746827D+01 -.353902578354D-07
     .958606976411D+00  .322187500000D+03  .904758480422D-01 -.828963101069D-08
     .193579491934D-09  .100000000000D+01  .195600000000D+04  .000000000000D+00
     .240000000000D+01  .000000000000D+00  .745058059692D-08  .470000000000D+02
     .532806000000D+06  .400000000000D+01
27 17  7  8  6  0  0.0  .289832707494D-03  .682121026330D-11  .000000000000D+00
     .230000000000D+02 -.962812500000D+02  .414338687441D-08  .292243870977D+01
    -.497139990330D-05  .488708820194D-02  .252015888691D-05  .515366956139D+04
     .540000000000D+06 -.372529029846D-08  .208079672684D+01 -.372529029846D-08
     .975072359312D+00  .339718750000D+03  .387343613639D+00 -.812891003030D-08
    -.221080637467D-09  .100000000000D+01  .195600000000D+04  .000000000000D+00
     .240000000000D+01  .000000000000D+00  .139698386192D-08  .230000000000D+02
     .532806000000D+06  .400000000000D+01
28 17  7  8  6  0  0.0  .627243891358D-03  .318323145621D-11  .000000000000D+00
     .550000000000D+02  .852187500000D+02  .380194408052D-08 -.248391250355D+01
     .443868339062D-05  .197181568947D-01  .243820250034D-05  .515365369415D+04
     .540000000000D+06  .229105353355D-06  .111979088955D+01  .540167093277D-07
     .988179847829D+00  .347343750000D+03 -.156682122288D+01 -.759995942596D-08
     .172507185617D-09  .100000000000D+01  .195600000000D+04  .000000000000D+00
     .240000000000D+01  .000000000000D+00 -.111758708954D-07  .550000000000D+02
     .532806000000D+06  .400000000000D+01
29 17  7  8  6  0  0.0  .587615184486D-03 -.375166564481D-11  .000000000000D+00
     .830000000000D+02 -.108281250000D+03  .398445168269D-08 -.188334360009D+01
    -.554136931896D-05  .651882612146D-03  .368431210518D-05  .515360723495D+04
     .540000000000D+06 -.502914190292D-07  .214322390464D+01 -.298023223877D-07
     .981365834352D+00  .319812500000D+03  .628082885922D+00 -.800211903466D-08
    -.285011871888D-09  .100000000000D+01  .195600000000D+04  .000000000000D+00
     .240000000000D+01  .000000000000D+00 -.977888703346D-08  .830000000000D+02
     .532806000000D+06  .400000000000D+01
30 17  7  8  6  0  0.0  .151171814650D-03 -.147792889038D-11  .000000000000D+00
     .530000000000D+02  .722187500000D+02  .452518849226D-08  .975475457611D-01
     .353530049324D-05  .296416459605D-02  .102203339338D-04  .515366405106D+04
     .540000000000D+06  .391155481339D-07  .497516041483D-01  .242143869400D-07
     .948002657762D+00  .173812500000D+03 -.313303745892D+01 -.794747390133D-08
    -.320013329840D-09  .100000000000D+01  .195600000000D+04  .000000000000D+00
     .240000000000D+01  .000000000000D+00  .372529029846D-08  .530000000000D+02
     .532806000000D+06  .400000000000D+01
31 17  7  8  6  0  0.0  .189797021449D-03 -.238742359215D-11  .000000000000D+00
     .790000000000D+02  .807812500000D+02  .413910098160D-08 -.910868050568D-01
     .408664345741D-05  .843541941140D-02  .112224370241D-04  .515373937225D+04
     .540000000000D+06  .987201929092D-07  .225602609597D-01 -.633299350739D-07
     .967021574410D+00  .168187500000D+03 -.252586831381D+00 -.781639701288D-08
    -.324656380384D-09  .100000000000D+01  .195600000000D+04  .000000000000D+00
     .240000000000D+01  .000000000000D+00 -.135041773319D-07  .790000000000D+02
     .532806000000D+06  .400000000000D+01
32 17  7  8  6  0  0.0 -.458105932921D-03 -.841282599140D-11  .000000000000D+00
     .590000000000D+02 -.217812500000D+02  .497556439509D-08 -.276430601658D+01
    -.110268592834D-05  .135185522959D-02  .656954944134D-05  .515373341751D+04
     .540000000000D+06  .149011611938D-07 -.106341353485D+01 -.968575477600D-07
     .957505984265D+00  .250406250000D+03 -.253635153210D+01 -.810498046211D-08
    -.490377569051D-09  .100000000000D+01  .195600000000D+04  .000000000000D+00
     .240000000000D+01  .000000000000D+00  .465661287308D-09  .590000000000D+02
     .532806000000D+06  .400000000000D+01
20 17  7  8  5 59 44.0  .478941481560D-03  .136424205266D-11  .000000000000D+00
     .580000000000D+02  .228437500000D+02  .556166023690D-08  .197993057482D+01
     .116974115372D-05  .435384118464D-02  .692345201969D-05  .515369900703D+04
     .539984000000D+06  .651925802231D-07 -.220177849545D+01 -.502914190292D-07
     .926969026426D+00  .229343750000D+03  .162121125311D+01 -.834713340590D-08
     .598596362513D-09  .100000000000D+01  .195600000000D+04  .000000000000D+00
     .240000000000D+01  .000000000000D+00 -.838190317154D-08  .580000000000D+02
     .539406000000D+06  .400000000000D+01
 7 17  7  8  5 59 44.0  .330709386617D-03 -.454747350886D-11  .000000000000D+00
     .220000000000D+02  .636250000000D+02  .436303888094D-08  .119749181131D+00
     .334903597832D-05  .107974046841D-01  .102501362562D-04  .515373541641D+04
     .539984000000D+06  .447034835815D-07  .114513540691D-01  .121071934700D-06
     .962281424324D+00  .179375000000D+03 -.258767290294D+01 -.796818904991D-08
    -.361443627006D-09  .100000000000D+01  .195600000000D+04  .000000000000D+00
     .240000000000D+01  .000000000000D+00 -.111758708954D-07  .220000000000D+02
     .539706000000D+06  .400000000000D+01
12 17  7  8  5 59 44.0  .379479955882D-03 -.102318153949D-11  .000000000000D+00
     .800000000000D+01  .846562500000D+02  .406874090796D-08 -.496999801099D+00
     .441633164883D-05  .662888598163D-02  .271201133728D-05  .515375745583D+04
     .539984000000D+06  .633299350739D-07  .109638310016D+01  .819563865662D-07
     .988919607465D+00  .341093750000D+03  .904569575274D+00 -.814569644381D-08
     .138220043134D-09  .100000000000D+01  .195600000000D+04  .000000000000D+00
     .240000000000D+01  .000000000000D+00 -.125728547573D-07  .800000000000D+01
     .539976000000D+06  .400000000000D+01
 7 17  7  8  7 59 44.0  .330676324666D-03 -.454747350886D-11  .000000000000D+00
     .230000000000D+02  .745000000000D+02  .432946605392D-08  .116967785311D+01
     .416114926338D-05  .107997572049D-01  .115539878607D-04  .515374164581D+04
     .547184000000D+06 -.409781932831D-07  .113943763358D-01  .145286321640D-06
     .962278691593D+00  .158375000000D+03 -.258746115579D+01 -.793175896103D-08
    -.397873715894D-09  .100000000000D+01  .195600000000D+04  .000000000000D+00
     .240000000000D+01  .000000000000D+00 -.111758708954D-07  .230000000000D+02
     .540006000000D+06  .400000000000D+01
12 17  7  8  7 59 44.0  .379472970963D-03 -.102318153949D-11  .000000000000D+00
     .900000000000D+01  .867500000000D+02  .402231040252D-08  .553067739846D+00
     .455230474472D-05  .662942742929D-02  .303424894810D-05  .515375851059D+04
     .547184000000D+06 -.633299350739D-07  .109632516861D+01  .100582838058D-06
     .988920539344D+00  .334625000000D+03  .904628241214D+00 -.807962226298D-08
     .535736601294D-10  .100000000000D+01  .195600000000D+04  .000000000000D+00
     .240000000000D+01  .000000000000D+00 -.125728547573D-07  .900000000000D+01
     .540006000000D+06  .400000000000D+01
20 17  7  8  7 59 44.0  .478951260448D-03  .136424205266D-11  .000000000000D+00
     .880000000000D+02  .278750000000D+02  .545487007438D-08  .302999691325D+01
     .118464231491D-05  .435325910803D-02  .685825943947D-05  .515370040131D+04
     .547184000000D+06  .577419996262D-07 -.220183838146D+01  .558793544769D-08
     .926973333257D+00  .227593750000D+03  .162131696796D+01 -.832391815317D-08
     .593953311968D-09  .100000000000D+01  .195600000000D+04  .000000000000D+00
     .240000000000D+01  .000000000000D+00 -.838190317154D-08  .880000000000D+02
     .540006000000D+06  .400000000000D+01
 1 17  7  8  8  0  0.0  .566267408431D-04  .341060513165D-12  .000000000000D+00
     .350000000000D+02 -.881562500000D+02  .388016162431D-08  .179822487028D+01
    -.452995300293D-05  .684852793347D-02  .111460685730D-04  .515369448471D+04
     .547200000000D+06 -.106170773506D-06  .313791698121D+01  .577419996262D-07
     .968316809893D+00  .167968750000D+03  .576475284921D+00 -.769889211833D-08
     .228580949885D-09  .100000000000D+01  .195600000000D+04  .000000000000D+00
     .240000000000D+01  .000000000000D+00  .558793544769D-08  .350000000000D+02
     .540006000000D+06  .400000000000D+01
 2 17  7  8  8  0  0.0  .381799880415D-03 -.829913915368D-11  .000000000000D+00
     .330000000000D+02 -.853437500000D+02  .424589114412D-08  .210200853428D+01
    -.447966158390D-05  .169273205101D-01  .101812183857D-04  .515355038071D+04
     .547200000000D+06  .521540641785D-07  .308367748672D+01 -.411644577980D-06
     .947253140461D+00  .174312500000D+03 -.197298965320D+01 -.770817821942D-08
     .262868092368D-09  .100000000000D+01  .195600000000D+04  .000000000000D+00
     .240000000000D+01  .000000000000D+00 -.204890966415D-07  .330000000000D+02
     .540006000000D+06  .400000000000D+01
 3 17  7  8  8  0  0.0 -.892151147127D-04  .295585778076D-11  .000000000000D+00
     .800000000000D+02  .213750000000D+02  .480270005173D-08  .109432919244D+01
     .901520252228D-06  .782188377343D-03  .685453414917D-05  .515369755173D+04
     .547200000000D+06  .372529029846D-07 -.210321112024D+01 -.111758708954D-07
     .959753885167D+00  .249781250000D+03  .152368869106D+00 -.804426364730D-08
     .561809115890D-09  .100000000000D+01  .195600000000D+04  .000000000000D+00
     .240000000000D+01  .000000000000D+00  .232830643654D-08  .800000000000D+02
     .540006000000D+06  .400000000000D+01
